{
    "STARLINK-1096": {
        "name": "STARLINK-1096",
        "l1": "1 44942C 20001AE  21289.07308175  .00005735  00000-0  38419-3 0  2899",
        "l2": "2 44942  53.0531 334.5262 0001454  88.0940 342.7174 15.06397735    15"
    },
    "STARLINK-71": {
        "name": "STARLINK-71",
        "l1": "1 44252U 19029T   21288.06920749  .00009641  00000-0  45903-3 0  9990",
        "l2": "2 44252  52.9992 162.0388 0001381 100.9083 259.2066 15.19787690131476"
    },
    "STARLINK-1453": {
        "name": "STARLINK-1453",
        "l1": "1 45670C 20035P   21289.15401429  .00005705  00000-0  38220-3 0  2897",
        "l2": "2 45670  53.0528  44.1501 0001247  97.4024 127.5573 15.06399167    10"
    },
    "STARLINK-1309": {
        "name": "STARLINK-1309",
        "l1": "1 45414C 20019BG  21289.17621656  .00006046  00000-0  40507-3 0  2893",
        "l2": "2 45414  53.0537 144.0616 0001458  78.6389 156.8096 15.06395693    17"
    },
    "STARLINK-1377": {
        "name": "STARLINK-1377",
        "l1": "1 45547C 20025S   21289.13369288  .00003910  00000-0  26206-3 0  2890",
        "l2": "2 45547  53.0518 114.2431 0001325  82.8994 306.9317 15.06379351    16"
    },
    "STARLINK-1113": {
        "name": "STARLINK-1113",
        "l1": "1 44926C 20001N   21289.05523780  .00005722  00000-0  39204-3 0  2899",
        "l2": "2 44926  52.9994 354.6057 0001203  95.6375 312.3187 15.05564006    14"
    },
    "STARLINK-1155": {
        "name": "STARLINK-1155",
        "l1": "1 45053C 20006K   21289.16165396 -.00002028  00000-0 -13277-3 0  2893",
        "l2": "2 45053  53.0000 292.6107 0001004 116.3498 183.7136 15.07256193    10"
    },
    "STARLINK-1172": {
        "name": "STARLINK-1172",
        "l1": "1 45074C 20006AG  21289.16306646 -.00000120  00000-0 -80601-5 0  2899",
        "l2": "2 45074  53.0527 274.1202 0001506  66.9592  42.1405 15.06385157    19"
    },
    "STARLINK-1312": {
        "name": "STARLINK-1312",
        "l1": "1 45398C 20019AQ  21289.15382789  .00007891  00000-0  52883-3 0  2892",
        "l2": "2 45398  53.0526 154.1552 0001911  67.9368 151.0357 15.06379466    16"
    },
    "STARLINK-1405": {
        "name": "STARLINK-1405",
        "l1": "1 45702C 20035AX  21289.16511902  .00008947  00000-0  59895-3 0  2894",
        "l2": "2 45702  53.0542  44.1006 0001291  94.3077 110.9313 15.06422728    13"
    },
    "STARLINK-1232": {
        "name": "STARLINK-1232",
        "l1": "1 45213C 20012AM  21289.16716766  .00001261  00000-0  82624-4 0  2890",
        "l2": "2 45213  53.0560  34.1824 0001322  83.8687 146.0595 15.07229114    19"
    },
    "STARLINK-1332": {
        "name": "STARLINK-1332",
        "l1": "1 45579C 20025BA  21289.15660671  .00005936  00000-0  39783-3 0  2891",
        "l2": "2 45579  53.0535  44.1390 0003100 357.9688 226.1989 15.06379591    18"
    },
    "STARLINK-1333": {
        "name": "STARLINK-1333",
        "l1": "1 45580C 20025BB  21289.06927713  .00004619  00000-0  30952-3 0  2892",
        "l2": "2 45580  53.0522  94.5315 0001557  90.4105 299.8663 15.06389295    17"
    },
    "STARLINK-1080": {
        "name": "STARLINK-1080",
        "l1": "1 44961C 20001AZ  21289.07798475  .00001391  00000-0  93216-4 0  2897",
        "l2": "2 44961  53.0544 314.4954 0001437  62.8883 204.5224 15.06378341    15"
    },
    "STARLINK-1406": {
        "name": "STARLINK-1406",
        "l1": "1 45687C 20035AG  21289.12501551  .00003329  00000-0  22803-3 0  2899",
        "l2": "2 45687  53.0007  54.2822 0001373  73.4274 220.5558 15.05575141    13"
    },
    "STARLINK-1269": {
        "name": "STARLINK-1269",
        "l1": "1 45197C 20012V   21289.17881517  .00004910  00000-0  32913-3 0  2898",
        "l2": "2 45197  53.0538  54.0356 0001173 106.5044 118.0231 15.06374513    19"
    },
    "STARLINK-1356": {
        "name": "STARLINK-1356",
        "l1": "1 45564C 20025AK  21289.08404465  .00004216  00000-0  28261-3 0  2893",
        "l2": "2 45564  53.0521  94.4656 0001923  86.7954 303.5847 15.06372943    11"
    },
    "STARLINK-1100": {
        "name": "STARLINK-1100",
        "l1": "1 44943C 20001AF  21289.07829162 -.00010473  00000-0 -70141-3 0  2899",
        "l2": "2 44943  53.0538 334.5009 0001238  95.7677 123.3900 15.06423744    14"
    },
    "STARLINK-1454": {
        "name": "STARLINK-1454",
        "l1": "1 45671C 20035Q   21289.14724853  .00002362  00000-0  15824-3 0  2897",
        "l2": "2 45671  53.0526  74.1824 0001398  94.8690  28.4787 15.06397383    11"
    },
    "STARLINK-1127": {
        "name": "STARLINK-1127",
        "l1": "1 45091U 20006AZ  21237.75620352  .07806481  11918-4  30047-2 0  9996",
        "l2": "2 45091  53.0439  84.0272 0015922 278.3548  81.6447 16.22978305 88193"
    },
    "STARLINK-1316": {
        "name": "STARLINK-1316",
        "l1": "1 45415C 20019BH  21289.13314929  .00010472  00000-0  70152-3 0  2899",
        "l2": "2 45415  53.0515 144.2466 0001435  68.5094 153.2188 15.06394469    18"
    },
    "STARLINK-1114": {
        "name": "STARLINK-1114",
        "l1": "1 44927C 20001P   21289.05607182  .00006506  00000-0  43591-3 0  2894",
        "l2": "2 44927  53.0540 354.5920 0001108  98.1477 310.3667 15.06391460    11"
    },
    "STARLINK-1174": {
        "name": "STARLINK-1174",
        "l1": "1 45075C 20006AH  21289.16461417  .00001329  00000-0  89057-4 0  2891",
        "l2": "2 45075  53.0538 274.1129 0001586  66.3960 231.1058 15.06384798    15"
    },
    "STARLINK-1255": {
        "name": "STARLINK-1255",
        "l1": "1 45399C 20019AR  21289.12916626  .00007253  00000-0  48594-3 0  2899",
        "l2": "2 45399  53.0525 144.2671 0002000  80.6781 139.5367 15.06391459    17"
    },
    "STARLINK-1407": {
        "name": "STARLINK-1407",
        "l1": "1 45703C 20035AY  21289.16510786  .00006660  00000-0  44638-3 0  2893",
        "l2": "2 45703  53.0543  44.1078 0001399  92.7647 132.3962 15.06378030    12"
    },
    "STARLINK-1233": {
        "name": "STARLINK-1233",
        "l1": "1 45214C 20012AN  21289.16284457  .00007038  00000-0  47171-3 0  2893",
        "l2": "2 45214  53.0532  34.1092 0001146 108.8068 299.2278 15.06378091    18"
    },
    "STARLINK-1245": {
        "name": "STARLINK-1245",
        "l1": "1 45215C 20012AP  21289.15903370  .00006422  00000-0  43029-3 0  2899",
        "l2": "2 45215  53.0543  34.1237 0001302  80.3197 326.9518 15.06391042    19"
    },
    "STARLINK-1335": {
        "name": "STARLINK-1335",
        "l1": "1 45581C 20025BC  21289.07398245  .00002785  00000-0  18666-3 0  2896",
        "l2": "2 45581  53.0528  84.5139 0001580  97.4950 293.2416 15.06383643    13"
    },
    "STARLINK-1063": {
        "name": "STARLINK-1063",
        "l1": "1 44768C 19074BH  21289.04827493  .00000238  00000-0  15941-4 0  2898",
        "l2": "2 44768  53.0515 234.6313 0001627  71.8064  34.4010 15.06400649    12"
    },
    "STARLINK-1081": {
        "name": "STARLINK-1081",
        "l1": "1 44962C 20001BA  21272.36760715  .17620425  00000-0  45142-2 0  2726",
        "l2": "2 44962  53.0411 329.3866 0011425  15.8389 203.5301 16.17164706    19"
    },
    "STARLINK-1517": {
        "name": "STARLINK-1517",
        "l1": "1 45787C 20038BK  21289.15386403 -.00016783  00000-0 -11248-2 0  2893",
        "l2": "2 45787  53.0538 204.1531 0001499  69.8289  74.4532 15.06406299    16"
    },
    "STARLINK-1065": {
        "name": "STARLINK-1065",
        "l1": "1 44770U 19074BK  21289.11605294  .00004810  00000-0  31986-3 0  9996",
        "l2": "2 44770  53.0020 228.8668 0002200  65.6569 294.4650 15.08863536106254"
    },
    "STARLINK-1634": {
        "name": "STARLINK-1634",
        "l1": "1 46152C 20057AM  21289.15362784 -.00000941  00000-0 -63048-4 0  2893",
        "l2": "2 46152  53.0538 324.1546 0001398  84.9734 297.9616 15.06397254    18"
    },
    "STARLINK-1399": {
        "name": "STARLINK-1399",
        "l1": "1 45683C 20035AC  21289.16042041  .00003838  00000-0  25715-3 0  2893",
        "l2": "2 45683  53.0539  64.1243 0001554 102.9462 186.8596 15.06391794    11"
    },
    "STARLINK-1190": {
        "name": "STARLINK-1190",
        "l1": "1 45083C 20006AR  21289.17395562 -.00002463  00000-0 -16508-3 0  2890",
        "l2": "2 45083  53.0534 294.0678 0001407  72.7951 225.3753 15.06384931    19"
    },
    "STARLINK-1476": {
        "name": "STARLINK-1476",
        "l1": "1 45753C 20038Z   21289.12951183  .00006037  00000-0  40452-3 0  2895",
        "l2": "2 45753  53.0536 224.2651 0001478  65.5365  16.5483 15.06390854    19"
    },
    "STARLINK-1072": {
        "name": "STARLINK-1072",
        "l1": "1 44935C 20001X   21289.08025177 -.00034622  00000-0 -26460-3 0  2892",
        "l2": "2 44935  53.0525 312.3692 0002532  20.2730 124.4713 15.71528540    10"
    },
    "STARLINK-1133": {
        "name": "STARLINK-1133",
        "l1": "1 45064C 20006W   21289.05502734 -.00000218  00000-0 -14632-4 0  2890",
        "l2": "2 45064  53.0519 274.5919 0001430  76.0175  26.8448 15.06385510    12"
    },
    "STARLINK-1150": {
        "name": "STARLINK-1150",
        "l1": "1 45067C 20006Z   21289.17151576 -.00010662  00000-0 -71438-3 0  2890",
        "l2": "2 45067  53.0518 274.0704 0001752  62.6464 352.3820 15.06409113    17"
    },
    "STARLINK-1473": {
        "name": "STARLINK-1473",
        "l1": "1 45737C 20038H   21174.50099760  .00181804  00000-0  28265-3 0  1743",
        "l2": "2 45737  52.9783 196.7426 0008211 291.9080 185.4268 16.03126218    13"
    },
    "STARLINK-1191": {
        "name": "STARLINK-1191",
        "l1": "1 45222C 20012AW  21289.17900975  .00004444  00000-0  29777-3 0  2893",
        "l2": "2 45222  53.0561  14.0451 0001060 103.6467 141.9938 15.06391716    11"
    },
    "STARLINK-1101": {
        "name": "STARLINK-1101",
        "l1": "1 44919C 20001F   21289.07780110 -.00066397  00000-0 -50826-3 0  2895",
        "l2": "2 44919  53.0522 323.7080 0002932   9.4031  80.4208 15.71520983    16"
    }
}